{
    "links": {
        "self": "http://www.neowsapp.com/rest/v1/neo/3728896?api_key=iIulBulltgU6a56xZRHN4H3l9WmuAYTsLGpBGhQ2"
    },
    "id": "3728896",
    "neo_reference_id": "3728896",
    "name": "(2015 TD)",
    "designation": "2015 TD",
    "nasa_jpl_url": "http://ssd.jpl.nasa.gov/sbdb.cgi?sstr=3728896",
    "absolute_magnitude_h": 24.6,
    "estimated_diameter": {
        "kilometers": {
            "estimated_diameter_min": 0.0319561887,
            "estimated_diameter_max": 0.0714562102
        },
        "meters": {
            "estimated_diameter_min": 31.9561886721,
            "estimated_diameter_max": 71.4562101727
        },
        "miles": {
            "estimated_diameter_min": 0.0198566489,
            "estimated_diameter_max": 0.0444008168
        },
        "feet": {
            "estimated_diameter_min": 104.8431420431,
            "estimated_diameter_max": 234.436392583
        }
    },
    "is_potentially_hazardous_asteroid": false,
    "close_approach_data": [
        {
            "close_approach_date": "2015-09-19",
            "close_approach_date_full": "2015-Sep-19 10:08",
            "epoch_date_close_approach": 1442657280000,
            "relative_velocity": {
                "kilometers_per_second": "7.6966292211",
                "kilometers_per_hour": "27707.8651960213",
                "miles_per_hour": "17216.5899047167"
            },
            "miss_distance": {
                "astronomical": "0.0511764148",
                "lunar": "19.9076253572",
                "kilometers": "7655882.648316476",
                "miles": "4757144.8859243288"
            },
            "orbiting_body": "Earth"
        }
    ],
    "orbital_data": {
        "orbit_id": "6",
        "orbit_determination_date": "2017-04-06 08:31:40",
        "first_observation_date": "2015-10-02",
        "last_observation_date": "2015-10-18",
        "data_arc_in_days": 16,
        "observations_used": 22,
        "orbit_uncertainty": "8",
        "minimum_orbit_intersection": ".0484614",
        "jupiter_tisserand_invariant": "3.671",
        "epoch_osculation": "2457301.5",
        "eccentricity": ".4783782181009339",
        "semi_major_axis": "2.00835699203619",
        "inclination": "7.997730305282094",
        "ascending_node_longitude": ".1760993375289914",
        "orbital_period": "1039.584500337195",
        "perihelion_distance": "1.047602752875366",
        "perihelion_argument": "345.4900483394673",
        "aphelion_distance": "2.969111231197014",
        "perihelion_time": "2457276.442941424808",
        "mean_anomaly": "8.677063850166345",
        "mean_motion": ".3462921964335097",
        "equinox": "J2000",
        "orbit_class": {
            "orbit_class_type": "AMO",
            "orbit_class_description": "Near-Earth asteroid orbits similar to that of 1221 Amor",
            "orbit_class_range": "1.017 AU < q (perihelion) < 1.3 AU"
        }
    },
    "is_sentry_object": false
}